STARLINK-1848
1 46740U 20074B   26061.07989374  .02551074  11795-4  13097-2 0  9999
2 46740  53.0272 290.0666 0006357 224.2484 135.8046 16.19709794296443
